{"type": "FeatureCollection", "features": [ {"type": "Feature", "properties": {"norad_id": 31058, "name": "FENGYUN 1C DEB", "group": "fengyun-1c-debris", "lat": -78.95844697351342, "lon": -10.811764485013658, "alt_km": 707.7098953164323, "timestamp": "2025-12-07T03:52:32.777613+00:00", "meta": {"OBJECT_NAME": "FENGYUN 1C DEB", "OBJECT_ID": "1999-025BFC", "EPOCH": "2025-11-30T14:27:22.580352", "MEAN_MOTION": 14.76018692, "ECCENTRICITY": 0.0094738, "INCLINATION": 99.5638, "RA_OF_ASC_NODE": 281.6638, "ARG_OF_PERICENTER": 143.0864, "MEAN_ANOMALY": 217.691, "EPHEMERIS_TYPE": 0, "CLASSIFICATION_TYPE": "U", "NORAD_CAT_ID": 31058, "ELEMENT_SET_NO": 999, "REV_AT_EPOCH": 99370, "BSTAR": 0.0011184, "MEAN_MOTION_DOT": 8.226e-05, "MEAN_MOTION_DDOT": 0}, "tle": {"line1": "1 31058U 99025BFC 25334.60234468  .00008226  00000+0  11184-2 0  9996", "line2": "2 31058  99.5638 281.6638 0094738 143.0864 217.6910 14.76018692993708"}}, "geometry": {"type": "Point", "coordinates": [-10.811764485013658, -78.95844697351342]}}, {"type": "Feature", "properties": {"norad_id": 31062, "name": "FENGYUN 1C DEB", "group": "fengyun-1c-debris", "lat": -58.01326982154462, "lon": 178.55113618970313, "alt_km": 878.2455943769837, "timestamp": "2025-12-07T03:52:32.777623+00:00", "meta": {"OBJECT_NAME": "FENGYUN 1C DEB", "OBJECT_ID": "1999-025BFG", "EPOCH": "2025-12-06T06:21:04.412160", "MEAN_MOTION": 13.7568626, "ECCENTRICITY": 0.01718345, "INCLINATION": 98.997, "RA_OF_ASC_NODE": 163.0095, "ARG_OF_PERICENTER": 335.1018, "MEAN_ANOMALY": 207.539, "EPHEMERIS_TYPE": 0, "CLASSIFICATION_TYPE": "U", "NORAD_CAT_ID": 31062, "ELEMENT_SET_NO": 999, "REV_AT_EPOCH": 94144, "BSTAR": 0.0004516502, "MEAN_MOTION_DOT": 4.44e-06, "MEAN_MOTION_DDOT": 0}, "tle": {"line1": "1 31062U 99025BFG 25340.26463440  .00000444  00000+0  45165-3 0  9995", "line2": "2 31062  98.9970 163.0095 0171834 335.1018 207.5390 13.75686260941447"}}, "geometry": {"type": "Point", "coordinates": [178.55113618970313, -58.01326982154462]}}, {"type": "Feature", "properties": {"norad_id": 31064, "name": "FENGYUN 1C DEB", "group": "fengyun-1c-debris", "lat": -60.31570996340773, "lon": 128.64992276410538, "alt_km": 949.3821906244293, "timestamp": "2025-12-07T03:52:32.777634+00:00", "meta": {"OBJECT_NAME": "FENGYUN 1C DEB", "OBJECT_ID": "1999-025BFJ", "EPOCH": "2025-12-05T22:10:40.389312", "MEAN_MOTION": 14.22110754, "ECCENTRICITY": 0.02419872, "INCLINATION": 98.5732, "RA_OF_ASC_NODE": 322.7914, "ARG_OF_PERICENTER": 21.3905, "MEAN_ANOMALY": 10.4925, "EPHEMERIS_TYPE": 0, "CLASSIFICATION_TYPE": "U", "NORAD_CAT_ID": 31064, "ELEMENT_SET_NO": 999, "REV_AT_EPOCH": 97158, "BSTAR": 0.0006571269, "MEAN_MOTION_DOT": 1.915e-05, "MEAN_MOTION_DDOT": 0}, "tle": {"line1": "1 31064U 99025BFJ 25339.92407858  .00001915  00000+0  65713-3 0  9994", "line2": "2 31064  98.5732 322.7914 0241987  21.3905  10.4925 14.22110754971587"}}, "geometry": {"type": "Point", "coordinates": [128.64992276410538, -60.31570996340773]}}, {"type": "Feature", "properties": {"norad_id": 31065, "name": "FENGYUN 1C DEB", "group": "fengyun-1c-debris", "lat": 51.57032180702522, "lon": -10.380133320945939, "alt_km": 767.7686683543616, "timestamp": "2025-12-07T03:52:32.777645+00:00", "meta": {"OBJECT_NAME": "FENGYUN 1C DEB", "OBJECT_ID": "1999-025BFK", "EPOCH": "2025-12-06T07:27:19.187136", "MEAN_MOTION": 14.28133562, "ECCENTRICITY": 0.003548, "INCLINATION": 98.4659, "RA_OF_ASC_NODE": 359.6143, "ARG_OF_PERICENTER": 50.1744, "MEAN_ANOMALY": 310.2552, "EPHEMERIS_TYPE": 0, "CLASSIFICATION_TYPE": "U", "NORAD_CAT_ID": 31065, "ELEMENT_SET_NO": 999, "REV_AT_EPOCH": 64486, "BSTAR": 0.0016485265, "MEAN_MOTION_DOT": 4.087e-05, "MEAN_MOTION_DDOT": 0}, "tle": {"line1": "1 31065U 99025BFK 25340.31063874  .00004087  00000+0  16485-2 0  9990", "line2": "2 31065  98.4659 359.6143 0035480  50.1744 310.2552 14.28133562644861"}}, "geometry": {"type": "Point", "coordinates": [-10.380133320945939, 51.57032180702522]}}, {"type": "Feature", "properties": {"norad_id": 31068, "name": "FENGYUN 1C DEB", "group": "fengyun-1c-debris", "lat": 66.68112864395822, "lon": 164.18873239401083, "alt_km": 744.4575866922096, "timestamp": "2025-12-07T03:52:32.777655+00:00", "meta": {"OBJECT_NAME": "FENGYUN 1C DEB", "OBJECT_ID": "1999-025BFN", "EPOCH": "2025-12-05T17:16:08.261184", "MEAN_MOTION": 14.09184379, "ECCENTRICITY": 0.01654718, "INCLINATION": 98.6281, "RA_OF_ASC_NODE": 322.1831, "ARG_OF_PERICENTER": 138.0623, "MEAN_ANOMALY": 223.3359, "EPHEMERIS_TYPE": 0, "CLASSIFICATION_TYPE": "U", "NORAD_CAT_ID": 31068, "ELEMENT_SET_NO": 999, "REV_AT_EPOCH": 96256, "BSTAR": 0.00021075295, "MEAN_MOTION_DOT": 3.75e-06, "MEAN_MOTION_DDOT": 0}, "tle": {"line1": "1 31068U 99025BFN 25339.71954006  .00000375  00000+0  21075-3 0  9999", "line2": "2 31068  98.6281 322.1831 0165471 138.0623 223.3359 14.09184379962562"}}, "geometry": {"type": "Point", "coordinates": [164.18873239401083, 66.68112864395822]}}, {"type": "Feature", "properties": {"norad_id": 31069, "name": "FENGYUN 1C DEB", "group": "fengyun-1c-debris", "lat": -44.83046331529429, "lon": -48.23382047902765, "alt_km": 757.8629141004967, "timestamp": "2025-12-07T03:52:32.777665+00:00", "meta": {"OBJECT_NAME": "FENGYUN 1C DEB", "OBJECT_ID": "1999-025BFP", "EPOCH": "2025-12-05T06:21:15.040224", "MEAN_MOTION": 14.57023128, "ECCENTRICITY": 0.01047413, "INCLINATION": 99.0992, "RA_OF_ASC_NODE": 138.8633, "ARG_OF_PERICENTER": 99.9446, "MEAN_ANOMALY": 261.359, "EPHEMERIS_TYPE": 0, "CLASSIFICATION_TYPE": "U", "NORAD_CAT_ID": 31069, "ELEMENT_SET_NO": 999, "REV_AT_EPOCH": 98577, "BSTAR": 0.001508615, "MEAN_MOTION_DOT": 7.262e-05, "MEAN_MOTION_DDOT": 0}, "tle": {"line1": "1 31069U 99025BFP 25339.26475741  .00007262  00000+0  15086-2 0  9990", "line2": "2 31069  99.0992 138.8633 0104741  99.9446 261.3590 14.57023128985774"}}, "geometry": {"type": "Point", "coordinates": [-48.23382047902765, -44.83046331529429]}}, {"type": "Feature", "properties": {"norad_id": 31071, "name": "FENGYUN 1C DEB", "group": "fengyun-1c-debris", "lat": 50.764613849860154, "lon": 47.23058385988972, "alt_km": 727.6626901007339, "timestamp": "2025-12-07T03:52:32.777676+00:00", "meta": {"OBJECT_NAME": "FENGYUN 1C DEB", "OBJECT_ID": "1999-025BFR", "EPOCH": "2025-11-28T11:19:27.812352", "MEAN_MOTION": 14.52441146, "ECCENTRICITY": 0.00557097, "INCLINATION": 99.0422, "RA_OF_ASC_NODE": 49.1199, "ARG_OF_PERICENTER": 325.3377, "MEAN_ANOMALY": 34.419, "EPHEMERIS_TYPE": 0, "CLASSIFICATION_TYPE": "U", "NORAD_CAT_ID": 31071, "ELEMENT_SET_NO": 999, "REV_AT_EPOCH": 65287, "BSTAR": 0.0010703966, "MEAN_MOTION_DOT": 4.402e-05, "MEAN_MOTION_DDOT": 0}, "tle": {"line1": "1 31071U 99025BFR 25332.47184968  .00004402  00000+0  10704-2 0  9992", "line2": "2 31071  99.0422  49.1199 0055709 325.3377  34.4190 14.52441146652870"}}, "geometry": {"type": "Point", "coordinates": [47.23058385988972, 50.764613849860154]}}, {"type": "Feature", "properties": {"norad_id": 31072, "name": "FENGYUN 1C DEB", "group": "fengyun-1c-debris", "lat": 78.54204267279685, "lon": -139.58825069520415, "alt_km": 654.6097628968882, "timestamp": "2025-12-07T03:52:32.777686+00:00", "meta": {"OBJECT_NAME": "FENGYUN 1C DEB", "OBJECT_ID": "1999-025BFS", "EPOCH": "2025-12-05T22:47:33.054432", "MEAN_MOTION": 14.25450198, "ECCENTRICITY": 0.02105215, "INCLINATION": 99.3326, "RA_OF_ASC_NODE": 344.8966, "ARG_OF_PERICENTER": 117.0638, "MEAN_ANOMALY": 245.2192, "EPHEMERIS_TYPE": 0, "CLASSIFICATION_TYPE": "U", "NORAD_CAT_ID": 31072, "ELEMENT_SET_NO": 999, "REV_AT_EPOCH": 96546, "BSTAR": 0.00090205262, "MEAN_MOTION_DOT": 2.635e-05, "MEAN_MOTION_DDOT": 0}, "tle": {"line1": "1 31072U 99025BFS 25339.94968813  .00002635  00000+0  90205-3 0  9992", "line2": "2 31072  99.3326 344.8966 0210521 117.0638 245.2192 14.25450198965468"}}, "geometry": {"type": "Point", "coordinates": [-139.58825069520415, 78.54204267279685]}}, {"type": "Feature", "properties": {"norad_id": 31073, "name": "FENGYUN 1C DEB", "group": "fengyun-1c-debris", "lat": 71.73272738617905, "lon": 40.05277922593025, "alt_km": 834.1734054811132, "timestamp": "2025-12-07T03:52:32.777696+00:00", "meta": {"OBJECT_NAME": "FENGYUN 1C DEB", "OBJECT_ID": "1999-025BFT", "EPOCH": "2025-12-03T01:37:19.680960", "MEAN_MOTION": 14.24707889, "ECCENTRICITY": 0.00458738, "INCLINATION": 99.2206, "RA_OF_ASC_NODE": 186.2773, "ARG_OF_PERICENTER": 313.0184, "MEAN_ANOMALY": 46.7154, "EPHEMERIS_TYPE": 0, "CLASSIFICATION_TYPE": "U", "NORAD_CAT_ID": 31073, "ELEMENT_SET_NO": 999, "REV_AT_EPOCH": 96945, "BSTAR": 0.0015631033, "MEAN_MOTION_DOT": 3.631e-05, "MEAN_MOTION_DDOT": 0}, "tle": {"line1": "1 31073U 99025BFT 25337.06758890  .00003631  00000+0  15631-2 0  9992", "line2": "2 31073  99.2206 186.2773 0045873 313.0184  46.7154 14.24707889969455"}}, "geometry": {"type": "Point", "coordinates": [40.05277922593025, 71.73272738617905]}}, {"type": "Feature", "properties": {"norad_id": 31074, "name": "FENGYUN 1C DEB", "group": "fengyun-1c-debris", "lat": -65.64425345860488, "lon": 55.74729703675036, "alt_km": 798.4378652231271, "timestamp": "2025-12-07T03:52:32.777707+00:00", "meta": {"OBJECT_NAME": "FENGYUN 1C DEB", "OBJECT_ID": "1999-025BFU", "EPOCH": "2025-12-02T05:31:54.784416", "MEAN_MOTION": 14.14072118, "ECCENTRICITY": 0.0089961, "INCLINATION": 98.9589, "RA_OF_ASC_NODE": 251.1985, "ARG_OF_PERICENTER": 295.203, "MEAN_ANOMALY": 63.9836, "EPHEMERIS_TYPE": 0, "CLASSIFICATION_TYPE": "U", "NORAD_CAT_ID": 31074, "ELEMENT_SET_NO": 999, "REV_AT_EPOCH": 95431, "BSTAR": 0.0031299, "MEAN_MOTION_DOT": 6.148e-05, "MEAN_MOTION_DDOT": 0}, "tle": {"line1": "1 31074U 99025BFU 25336.23049519  .00006148  00000+0  31299-2 0  9996", "line2": "2 31074  98.9589 251.1985 0089961 295.2030  63.9836 14.14072118954316"}}, "geometry": {"type": "Point", "coordinates": [55.74729703675036, -65.64425345860488]}}]}